OBJECT_NAME,OBJECT_ID,EPOCH,MEAN_MOTION,ECCENTRICITY,INCLINATION,RA_OF_ASC_NODE,ARG_OF_PERICENTER,MEAN_ANOMALY,EPHEMERIS_TYPE,CLASSIFICATION_TYPE,NORAD_CAT_ID,ELEMENT_SET_NO,REV_AT_EPOCH,BSTAR,MEAN_MOTION_DOT,MEAN_MOTION_DDOT
GEOSCAN 3 (RS92S3),2025-155T,2026-06-08T06:19:26.597856,15.35096613,.00053776,97.4534,129.0385,189.9704,170.1434,0,U,64893,999,7948,.46117104E-3,.15646E-3,0
INNOSAT 3 (RS92S0),2025-155U,2026-06-08T05:40:39.196992,15.43197846,.00048606,97.4485,130.5226,174.3480,185.7824,0,U,64894,999,7958,.70447262E-3,.31261E-3,0
KNACKSAT-2,1998-067XZ,2026-06-07T19:16:13.947744,15.59121118,.0010362,51.6303,341.6515,174.2130,185.8984,0,U,67683,999,1881,.61257743E-3,.48726E-3,0
