GEOSCAN 3 (RS92S3)      
1 64893U 25155T   26159.26350229  .00015646  00000+0  46117-3 0  9993
2 64893  97.4534 129.0385 0005377 189.9704 170.1434 15.35096613 79489
INNOSAT 3 (RS92S0)      
1 64894U 25155U   26159.23656478  .00031261  00000+0  70447-3 0  9990
2 64894  97.4485 130.5226 0004860 174.3480 185.7824 15.43197846 79586
KNACKSAT-2              
1 67683U 98067XZ  26158.80293921  .00048726  00000+0  61258-3 0  9997
2 67683  51.6303 341.6515 0010362 174.2130 185.8984 15.59121118 18810
